start=new Date('2023-06-17T00:00:00.000Z').valueOf();
sats=[{"APOAPSIS":"360.966","LAUNCH_DATE":"2023-01-31","ECCENTRICITY":"0.00029170","PERIAPSIS":"357.035","MEAN_ANOMALY":"104.7945","MEAN_ELEMENT_THEORY":"SGP4","NORAD_CAT_ID":"55397","FILE":"3934949","RCS_SIZE":"LARGE","GP_ID":"234097406","REF_FRAME":"TEME","OBJECT_NAME":"STARLINK-5224","TIME_SYSTEM":"UTC","REV_AT_EPOCH":"2250","ARG_OF_PERICENTER":"255.2927","TLE_LINE2":"2 55397  69.9969  67.0496 0002917 255.2927 104.7945 15.69964543 22503","MEAN_MOTION_DOT":"0.00004990","CLASSIFICATION_TYPE":"U","COUNTRY_CODE":"US","RA_OF_ASC_NODE":"67.0496","OBJECT_ID":"2023-014G","DECAY_DATE":null,"MEAN_MOTION_DDOT":"0.0000000000000","SITE":"AFWTR","CENTER_NAME":"EARTH","ELEMENT_SET_NO":"999","SEMIMAJOR_AXIS":"6737.135","TLE_LINE1":"1 55397U 23014G   23167.77942169  .00004990  00000-0  43170-4 0  9994","PERIOD":"91.722","BSTAR":"0.00004317000000","INCLINATION":"69.9969","OBJECT_TYPE":"PAYLOAD","MEAN_MOTION":"15.69964543","EPHEMERIS_TYPE":"0","EPOCH":"2023-06-16T18:42:22.034016"},{"DECAY_DATE":null,"SEMIMAJOR_AXIS":"6737.281","TLE_LINE1":"1 55398U 23014H   23167.71637700 -.00000545  00000-0 -27653-5 0  9994","ELEMENT_SET_NO":"999","CENTER_NAME":"EARTH","MEAN_MOTION_DDOT":"0.0000000000000","SITE":"AFWTR","OBJECT_TYPE":"PAYLOAD","INCLINATION":"70.0000","BSTAR":"-0.00000276530000","PERIOD":"91.725","EPOCH":"2023-06-16T17:11:34.972800","EPHEMERIS_TYPE":"0","MEAN_MOTION":"15.69913596","COUNTRY_CODE":"US","CLASSIFICATION_TYPE":"U","RA_OF_ASC_NODE":"67.2329","OBJECT_ID":"2023-014H","ARG_OF_PERICENTER":"265.0696","REV_AT_EPOCH":"2249","TIME_SYSTEM":"UTC","OBJECT_NAME":"STARLINK-5275","TLE_LINE2":"2 55398  70.0000  67.2329 0003321 265.0696  95.0121 15.69913596 22490","MEAN_MOTION_DOT":"-0.00000545","LAUNCH_DATE":"2023-01-31","APOAPSIS":"361.384","MEAN_ELEMENT_THEORY":"SGP4","PERIAPSIS":"356.909","MEAN_ANOMALY":"95.0121","ECCENTRICITY":"0.00033210","FILE":"3934949","NORAD_CAT_ID":"55398","RCS_SIZE":"LARGE","REF_FRAME":"TEME","GP_ID":"234097656"},{"NORAD_CAT_ID":"55399","FILE":"3934949","RCS_SIZE":"LARGE","GP_ID":"234097905","REF_FRAME":"TEME","LAUNCH_DATE":"2023-01-31","APOAPSIS":"361.241","MEAN_ELEMENT_THEORY":"SGP4","PERIAPSIS":"356.967","MEAN_ANOMALY":"96.3743","ECCENTRICITY":"0.00031720","TLE_LINE2":"2 55399  69.9970  67.0525 0003172 263.7091  96.3743 15.69928333 22509","MEAN_MOTION_DOT":"-0.00000370","ARG_OF_PERICENTER":"263.7091","REV_AT_EPOCH":"2250","TIME_SYSTEM":"UTC","OBJECT_NAME":"STARLINK-5276","RA_OF_ASC_NODE":"67.0525","OBJECT_ID":"2023-014J","COUNTRY_CODE":"US","CLASSIFICATION_TYPE":"U","OBJECT_TYPE":"PAYLOAD","INCLINATION":"69.9970","BSTAR":"-0.00000130690000","PERIOD":"91.724","EPOCH":"2023-06-16T18:42:52.189344","EPHEMERIS_TYPE":"0","MEAN_MOTION":"15.69928333","DECAY_DATE":null,"SEMIMAJOR_AXIS":"6737.239","TLE_LINE1":"1 55399U 23014J   23167.77977071 -.00000370  00000-0 -13069-5 0  9991","ELEMENT_SET_NO":"999","CENTER_NAME":"EARTH","SITE":"AFWTR","MEAN_MOTION_DDOT":"0.0000000000000"},{"LAUNCH_DATE":"2023-01-31","APOAPSIS":"361.383","PERIAPSIS":"356.823","MEAN_ELEMENT_THEORY":"SGP4","MEAN_ANOMALY":"86.2908","ECCENTRICITY":"0.00033840","RCS_SIZE":"LARGE","FILE":"3934686","NORAD_CAT_ID":"55400","REF_FRAME":"TEME","GP_ID":"234065513","ARG_OF_PERICENTER":"273.7901","REV_AT_EPOCH":"2245","TIME_SYSTEM":"UTC","OBJECT_NAME":"STARLINK-5632","TLE_LINE2":"2 55400  69.9975  67.9498 0003384 273.7901  86.2908 15.69928598 22459","MEAN_MOTION_DOT":"0.00003907","COUNTRY_CODE":"US","CLASSIFICATION_TYPE":"U","RA_OF_ASC_NODE":"67.9498","OBJECT_ID":"2023-014K","DECAY_DATE":null,"TLE_LINE1":"1 55400U 23014K   23167.46170788  .00003907  00000-0  34238-4 0  9997","SEMIMAJOR_AXIS":"6737.238","ELEMENT_SET_NO":"999","CENTER_NAME":"EARTH","MEAN_MOTION_DDOT":"0.0000000000000","SITE":"AFWTR","OBJECT_TYPE":"PAYLOAD","INCLINATION":"69.9975","BSTAR":"0.00003423800000","PERIOD":"91.724","EPOCH":"2023-06-16T11:04:51.560832","EPHEMERIS_TYPE":"0","MEAN_MOTION":"15.69928598"},{"SITE":"AFWTR","MEAN_MOTION_DDOT":"0.0000000000000","ELEMENT_SET_NO":"999","CENTER_NAME":"EARTH","TLE_LINE1":"1 55401U 23014L   23167.71616637  .00000072  00000-0  23759-5 0  9991","SEMIMAJOR_AXIS":"6737.290","DECAY_DATE":null,"MEAN_MOTION":"15.69910408","EPHEMERIS_TYPE":"0","EPOCH":"2023-06-16T17:11:16.774368","PERIOD":"91.725","BSTAR":"0.00000237590000","INCLINATION":"69.9980","OBJECT_TYPE":"PAYLOAD","CLASSIFICATION_TYPE":"U","COUNTRY_CODE":"US","OBJECT_ID":"2023-014L","RA_OF_ASC_NODE":"67.2333","OBJECT_NAME":"STARLINK-5076","TIME_SYSTEM":"UTC","REV_AT_EPOCH":"2249","ARG_OF_PERICENTER":"262.1957","MEAN_MOTION_DOT":"0.00000072","TLE_LINE2":"2 55401  69.9980  67.2333 0003900 262.1957  97.8796 15.69910408 22492","ECCENTRICITY":"0.00039000","MEAN_ELEMENT_THEORY":"SGP4","PERIAPSIS":"356.528","MEAN_ANOMALY":"97.8796","APOAPSIS":"361.783","LAUNCH_DATE":"2023-01-31","GP_ID":"234096907","REF_FRAME":"TEME","RCS_SIZE":"LARGE","FILE":"3934949","NORAD_CAT_ID":"55401"},{"MEAN_MOTION_DOT":"0.00002725","TLE_LINE2":"2 55402  69.9980  67.9495 0003857 260.7574  99.3186 15.69927392 22455","OBJECT_NAME":"STARLINK-5071","TIME_SYSTEM":"UTC","REV_AT_EPOCH":"2245","ARG_OF_PERICENTER":"260.7574","REF_FRAME":"TEME","GP_ID":"234064513","FILE":"3934686","RCS_SIZE":"LARGE","NORAD_CAT_ID":"55402","ECCENTRICITY":"0.00038570","MEAN_ELEMENT_THEORY":"SGP4","PERIAPSIS":"356.508","MEAN_ANOMALY":"99.3186","APOAPSIS":"361.705","LAUNCH_DATE":"2023-01-31","MEAN_MOTION":"15.69927392","EPHEMERIS_TYPE":"0","EPOCH":"2023-06-16T11:05:09.945024","PERIOD":"91.724","BSTAR":"0.00002442500000","INCLINATION":"69.9980","OBJECT_TYPE":"PAYLOAD","MEAN_MOTION_DDOT":"0.0000000000000","SITE":"AFWTR","ELEMENT_SET_NO":"999","CENTER_NAME":"EARTH","TLE_LINE1":"1 55402U 23014M   23167.46192066  .00002725  00000-0  24425-4 0  9996","SEMIMAJOR_AXIS":"6737.242","DECAY_DATE":null,"OBJECT_ID":"2023-014M","RA_OF_ASC_NODE":"67.9495","CLASSIFICATION_TYPE":"U","COUNTRY_CODE":"US"},{"BSTAR":"0.00002923800000","PERIOD":"91.724","OBJECT_TYPE":"PAYLOAD","INCLINATION":"69.9976","MEAN_MOTION":"15.69929105","EPOCH":"2023-06-16T11:04:42.290976","EPHEMERIS_TYPE":"0","DECAY_DATE":null,"ELEMENT_SET_NO":"999","CENTER_NAME":"EARTH","SITE":"AFWTR","MEAN_MOTION_DDOT":"0.0000000000000","TLE_LINE1":"1 55403U 23014N   23167.46160059  .00003305  00000-0  29238-4 0  9996","SEMIMAJOR_AXIS":"6737.237","RA_OF_ASC_NODE":"67.9499","OBJECT_ID":"2023-014N","CLASSIFICATION_TYPE":"U","COUNTRY_CODE":"US","TLE_LINE2":"2 55403  69.9976  67.9499 0003315 262.5945  97.4874 15.69929105 22453","MEAN_MOTION_DOT":"0.00003305","TIME_SYSTEM":"UTC","OBJECT_NAME":"STARLINK-5597","ARG_OF_PERICENTER":"262.5945","REV_AT_EPOCH":"2245","FILE":"3934686","RCS_SIZE":"LARGE","NORAD_CAT_ID":"55403","GP_ID":"234064759","REF_FRAME":"TEME","APOAPSIS":"361.335","LAUNCH_DATE":"2023-01-31","MEAN_ANOMALY":"97.4874","PERIAPSIS":"356.868","MEAN_ELEMENT_THEORY":"SGP4","ECCENTRICITY":"0.00033150"},{"MEAN_MOTION_DOT":"0.00001789","TLE_LINE2":"2 55404  69.9955  67.9512 0004001 270.1506  89.9231 15.69921444 22459","OBJECT_NAME":"STARLINK-5607","TIME_SYSTEM":"UTC","REV_AT_EPOCH":"2245","ARG_OF_PERICENTER":"270.1506","GP_ID":"234066013","REF_FRAME":"TEME","RCS_SIZE":"LARGE","FILE":"3934686","NORAD_CAT_ID":"55404","ECCENTRICITY":"0.00040010","PERIAPSIS":"356.428","MEAN_ANOMALY":"89.9231","MEAN_ELEMENT_THEORY":"SGP4","APOAPSIS":"361.819","LAUNCH_DATE":"2023-01-31","MEAN_MOTION":"15.69921444","EPOCH":"2023-06-16T11:05:28.140864","EPHEMERIS_TYPE":"0","PERIOD":"91.724","BSTAR":"0.00001665200000","INCLINATION":"69.9955","OBJECT_TYPE":"PAYLOAD","SITE":"AFWTR","MEAN_MOTION_DDOT":"0.0000000000000","ELEMENT_SET_NO":"999","CENTER_NAME":"EARTH","TLE_LINE1":"1 55404U 23014P   23167.46213126  .00001789  00000-0  16652-4 0  9991","SEMIMAJOR_AXIS":"6737.259","DECAY_DATE":null,"OBJECT_ID":"2023-014P","RA_OF_ASC_NODE":"67.9512","CLASSIFICATION_TYPE":"U","COUNTRY_CODE":"US"},{"CLASSIFICATION_TYPE":"U","COUNTRY_CODE":"US","OBJECT_ID":"2023-014Q","RA_OF_ASC_NODE":"67.9505","ELEMENT_SET_NO":"999","CENTER_NAME":"EARTH","MEAN_MOTION_DDOT":"0.0000000000000","SITE":"AFWTR","TLE_LINE1":"1 55405U 23014Q   23167.46181849 -.00000419  00000-0 -17139-5 0  9991","SEMIMAJOR_AXIS":"6737.230","DECAY_DATE":null,"MEAN_MOTION":"15.69931589","EPOCH":"2023-06-16T11:05:01.117536","EPHEMERIS_TYPE":"0","BSTAR":"-0.00000171390000","PERIOD":"91.724","OBJECT_TYPE":"PAYLOAD","INCLINATION":"69.9970","MEAN_ANOMALY":"94.5679","PERIAPSIS":"356.962","MEAN_ELEMENT_THEORY":"SGP4","ECCENTRICITY":"0.00031650","APOAPSIS":"361.227","LAUNCH_DATE":"2023-01-31","GP_ID":"234065764","REF_FRAME":"TEME","FILE":"3934686","NORAD_CAT_ID":"55405","RCS_SIZE":"LARGE","TIME_SYSTEM":"UTC","OBJECT_NAME":"STARLINK-5623","ARG_OF_PERICENTER":"265.5155","REV_AT_EPOCH":"2245","MEAN_MOTION_DOT":"-0.00000419","TLE_LINE2":"2 55405  69.9970  67.9505 0003165 265.5155  94.5679 15.69931589 22456"},{"SEMIMAJOR_AXIS":"6737.225","TLE_LINE1":"1 55406U 23014R   23167.46234351  .00004548  00000-0  39558-4 0  9992","MEAN_MOTION_DDOT":"0.0000000000000","SITE":"AFWTR","ELEMENT_SET_NO":"999","CENTER_NAME":"EARTH","DECAY_DATE":null,"EPOCH":"2023-06-16T11:05:46.479264","EPHEMERIS_TYPE":"0","MEAN_MOTION":"15.69933354","INCLINATION":"70.0003","OBJECT_TYPE":"PAYLOAD","PERIOD":"91.724","BSTAR":"0.00003955800000","COUNTRY_CODE":"US","CLASSIFICATION_TYPE":"U","OBJECT_ID":"2023-014R","RA_OF_ASC_NODE":"67.9520","REV_AT_EPOCH":"2151","ARG_OF_PERICENTER":"268.1066","OBJECT_NAME":"STARLINK-5630","TIME_SYSTEM":"UTC","MEAN_MOTION_DOT":"0.00004548","TLE_LINE2":"2 55406  70.0003  67.9520 0003196 268.1066  91.9764 15.69933354 21512","ECCENTRICITY":"0.00031960","MEAN_ELEMENT_THEORY":"SGP4","PERIAPSIS":"356.936","MEAN_ANOMALY":"91.9764","LAUNCH_DATE":"2023-01-31","APOAPSIS":"361.243","REF_FRAME":"TEME","GP_ID":"234068179","RCS_SIZE":"LARGE","FILE":"3934735","NORAD_CAT_ID":"55406"}];
